NAVSTAR 77 (USA 289)    
1 43873U 18109A   24223.17741153 -.00000012  00000+0  00000+0 0  9998
2 43873  55.3156 118.8948 0029780 193.2872 338.6313  2.00558559 41460
